STARLINK-32460          
1 61914U 24207C   26068.01416227  .00028675  00000+0  10471-2 0  9993
2 61914  43.0002 285.1359 0001700 273.0231  87.0426 15.27590764 74623
HAWK-11A                
1 62382U 24247F   26068.51231358  .00009457  00000+0  34106-3 0  9991
2 62382  44.9941 114.3328 0005466 327.3713  32.6832 15.28849427 67741
